[{"OBJECT_NAME":"STARLINK-32383","OBJECT_ID":"2024-204T","EPOCH":"2026-03-09T13:08:34.873440","MEAN_MOTION":15.30189917,"ECCENTRICITY":0.0001168,"INCLINATION":53.1607,"RA_OF_ASC_NODE":127.8864,"ARG_OF_PERICENTER":113.3459,"MEAN_ANOMALY":246.7665,"EPHEMERIS_TYPE":0,"CLASSIFICATION_TYPE":"U","NORAD_CAT_ID":61891,"ELEMENT_SET_NO":999,"REV_AT_EPOCH":7507,"BSTAR":-1.2773e-6,"MEAN_MOTION_DOT":-3.97e-6,"MEAN_MOTION_DDOT":0},{"OBJECT_NAME":"OBJECT N","OBJECT_ID":"2024-205N","EPOCH":"2026-03-09T22:36:13.267872","MEAN_MOTION":15.33862123,"ECCENTRICITY":0.00094432,"INCLINATION":97.4211,"RA_OF_ASC_NODE":148.9295,"ARG_OF_PERICENTER":39.7652,"MEAN_ANOMALY":320.4281,"EPHEMERIS_TYPE":0,"CLASSIFICATION_TYPE":"U","NORAD_CAT_ID":61906,"ELEMENT_SET_NO":999,"REV_AT_EPOCH":7364,"BSTAR":0.00078005624,"MEAN_MOTION_DOT":0.00025559,"MEAN_MOTION_DDOT":0}]
